GLOBALSTAR M023         
1 25621U 99004A   24301.69743881 -.00000068  00000+0  20154-3 0  9993
2 25621  52.0129  41.3681 0009608 335.9450 178.9942 12.62480490186362
GLOBALSTAR M040         
1 25622U 99004B   24301.74012642 -.00000043  00000+0  33847-3 0  9990
2 25622  51.9939  45.0445 0000611 185.4560 329.2258 12.61988078185908
GLOBALSTAR M036         
1 25623U 99004C   24301.78830529 -.00000025  00000+0  84479-3 0  9994
2 25623  51.9935 132.8650 0010371 331.6625  41.0246 11.86579241151395
GLOBALSTAR M038         
1 25624U 99004D   24301.94193572 -.00000045  00000+0  41651-3 0  9990
2 25624  52.0003  20.4028 0001326 287.3073 244.5191 12.32511721173731
GLOBALSTAR M022         
1 25649U 99012A   24301.82510462 -.00000098  00000+0 -13163-3 0  9990
2 25649  52.0033 202.5643 0003207  67.5292 332.5661 12.02489958148429
GLOBALSTAR M041         
1 25650U 99012B   24301.84489412 -.00000064  00000+0  26950-3 0  9994
2 25650  52.0017  76.8736 0002107 206.6516 153.4212 11.96659817150713
GLOBALSTAR M046         
1 25651U 99012C   24301.92933531 -.00000011  00000+0  85416-3 0  9994
2 25651  52.0031 160.8937 0002773 127.2174 246.4019 12.09400927155561
GLOBALSTAR M037         
1 25652U 99012D   24301.95094041 -.00000041  00000+0  34782-3 0  9995
2 25652  51.9985 171.3014 0002757  47.3303 326.4993 12.62422576181943
